Uncorrected accelerogram 20141116_223317_PUZ_20 GNS Science
Site PUZ       38 04 18S  178 15 26E     Basalt file:  20141116_223345_PUZ
Puketiti
Instrument Basalt_1679
Resolution: 24-bit   Instr Period: 0.0050 s   Damping: 0.700
Accelerogram 20141116_223317_PUZ_20                  Processed 2016 February 21
151 km east of Tikitiki
2014 November 16         22:33:17 UT
Epicentre  37 35 50S 179 53 17W  Bearing N73E  Dist  172km  Depth   32km M  6.48
Number of points  29000    Duration 145.00 s
Raw readings in units of 1.00 mm/s/s  at intervals of 0.005 s
Data is unfiltered
Component S90E
Acceleration:  Peak    127.2 mm/s/s at  62.29 s     RMS    12.71 mm/s/s
Velocity record unevaluated
Displacement record unevaluated
    2014      11      16      22      33     170       0       0    2014      11
      37      35      50     179      53      17      32       0      16      22
      38       4      18     178      15      26      90      90      73     172
   29000       0       0   29000       0       0       0       0      33    5000
   200.0    0.70    0.00   0.000  0.0000   0.000   0.000   1.000     0.0    0.00
  38.072 178.257  37.597-179.888    6.48    0.00    0.00    0.00      0.      0.
  145.00    0.00    0.00  145.00  0.0050  0.0050      0.      0.      0.  9806.6
   127.2   62.29    12.7      0.      0.     0.0    0.00     0.0     0.0   0.000
    0.00    0.00    0.00    0.00   0.000    0.00    0.00    0.00    0.00   0.000
   0.000   0.000   0.000      0.      0.   0.000   0.000   0.000      0.      0.
     0.6    -1.0    -0.2     0.9    -0.7     0.4     0.2     0.1    -0.1     0.5
    -0.1    -0.5    -0.2    -0.8     0.9     0.0    -0.4     0.4     0.1    -0.2
    -0.3     0.6     0.0     0.2     0.0    -0.7     0.4     0.0    -0.8     0.3
     0.2    -0.4    -0.2     0.0     0.2    -0.4     0.2    -0.1    -0.4     0.0
    -0.5     0.4    -0.2    -0.5     0.1     0.3     0.5    -0.1    -0.0     0.6
    -0.2    -0.3     0.1     0.2     0.7    -0.6     0.3     0.6    -0.9     0.2
    -0.0     0.1     0.3     0.2     0.1    -0.0     0.3    -0.4    -0.2     0.2
     0.3     0.2    -0.0    -0.3    -0.3     0.0    -0.8     0.1     0.3    -0.2
     0.3    -0.3     0.4     0.0    -0.3     0.3    -0.5    -0.3     0.3     0.4
    -0.2    -0.3     0.2    -0.2    -0.2     0.7     0.1    -0.3     0.4    -1.2
    -0.5     0.4    -0.8     0.4     0.1    -0.6    -0.0    -0.1    -0.4     0.1
     0.4    -0.7    -0.1     0.3    -0.7    -0.3    -0.6    -0.3     0.3    -0.1
     0.4    -0.4    -0.2    -0.3    -0.8     0.2    -0.4     0.1     0.7    -0.2
     0.2    -0.3    -1.2     0.5     0.0    -0.5     0.9    -0.3     0.0     0.1
    -0.2    -0.2    -0.5     0.8    -0.1     0.0     0.3    -0.8     0.3    -0.3
    -0.6     0.2     0.2     0.3     0.1    -0.1    -0.6     0.1     0.5    -0.1
     0.1    -0.2     0.7     0.6    -0.2     0.3    -0.3    -0.1    -0.1     0.2
     0.4    -0.1     0.1     0.4     0.6     0.3     0.5     0.3     0.5    -0.3
    -0.6     0.1    -0.6    -0.0     0.4     0.6     0.6     0.0     0.5    -0.3
    -1.1     0.2     0.0    -0.8     0.7     0.2    -0.7     0.5     0.4     0.3
    -0.1    -0.0     0.4    -0.3    -0.1     0.0    -0.2     0.1     0.2     0.3
     0.2     0.2    -0.0    -0.1    -0.1    -0.0     0.2     0.2    -0.1    -0.1
    -0.1    -0.3     0.3     0.3    -0.2    -0.1    -0.1    -0.3    -0.7    -0.2
     0.1     0.5     0.6     0.1     0.5    -0.2    -0.5    -0.2    -0.7    -0.2
     0.6     0.0    -0.3     0.4    -0.1     0.1     0.1    -0.1     0.2    -0.5
     0.0    -0.3    -0.6    -0.4    -1.0     0.4     0.6     0.2     0.4     0.3
     0.2    -0.8    -0.8    -0.6    -0.5     0.3    -0.2     0.7     0.7    -0.1
     1.3    -0.1    -0.1     1.0    -0.5     0.2    -0.3    -0.3     0.4    -0.2
     0.5     0.6     0.4    -0.0     0.8     0.4    -0.5    -0.0    -0.0     1.0
    -0.6     0.2     1.2    -0.5     1.0     0.9     0.2    -0.1     0.2    -0.0
     0.4     1.0    -1.0     1.2     1.4    -0.5     0.8    -0.5    -0.1     0.2
    -0.3     0.9     0.3    -0.3     0.6     0.8    -0.2     0.4     0.7     0.1
     0.6    -0.2    -0.2     0.1    -0.4     0.0    -0.0    -0.1     1.2     0.7
    -0.2     0.9    -0.2    -1.0     0.2    -0.3    -1.2     0.3     0.9    -0.5
     0.4     0.7     0.2    -0.1     0.3     0.4    -0.7     0.7    -0.2    -0.7
     0.1    -0.2     0.5     0.2     0.5     0.4     0.2    -0.1    -0.0    -0.1
    -0.2     0.4    -0.3     0.2     0.1    -0.2     0.2     0.2     0.2    -0.4
     0.3     0.2    -0.1     0.6     0.1    -0.1     0.2     0.0    -0.0    -0.1
     0.1    -0.5    -0.4     0.5    -0.1     0.1     0.1     0.1     0.5    -0.1
     0.0     0.4    -0.2    -0.1     0.6     0.4    -0.1    -0.2     0.8     0.5
     0.2     0.2    -0.0     1.0    -0.1    -0.8     0.1    -0.3     0.4    -0.1
    -0.4     0.7     0.5    -0.5    -0.6     0.3     0.3     0.0     0.0    -0.8
    -0.6     0.2    -0.2    -0.2     0.5     0.8    -0.1    -0.2     0.4    -0.3
    -0.1     0.4    -0.4    -0.3     0.8     0.4     0.2    -0.1     0.3     0.7
    -0.6     0.4     0.4    -0.1     0.8    -0.9    -0.6     0.8     0.3    -0.1
     0.5     0.7    -0.2    -0.0     0.2    -0.1     0.0     0.7     0.0    -0.1
     1.1     0.4     0.2     0.1     0.0     0.3     0.2     0.3     0.2     0.5
     0.5     0.5     0.1     0.1     0.4    -0.1    -0.3    -0.4    -0.1     0.7
     1.4    -0.3    -0.1     1.0    -0.3     0.0    -0.2     0.9     0.5    -0.5
     0.5     0.2     0.0    -0.2     0.3     0.5     0.3     0.5     0.2     0.4
    -0.2     0.1     0.4     0.1     0.1    -0.1     1.0     0.6    -0.4     0.1
     0.2     0.3    -0.1     0.6     0.7     0.1     0.1    -0.4    -0.0    -0.1
     0.9     0.8    -0.4     0.5     0.1     0.4     0.1    -0.3     0.8     0.1
    -0.3     0.5     0.4    -0.4    -0.3     0.0     0.7     0.7    -0.3     0.2
     0.3     0.1    -0.6    -0.4     0.7    -0.5     0.2     1.0    -0.2    -0.3
     0.2     0.0    -0.0     0.5     0.2     0.3     0.1    -0.3     0.6     0.4
    -0.1     0.4     0.2     0.3     0.5     0.4     0.5    -0.1     0.1     0.5
    -0.3     0.7     0.3    -0.8     0.0     0.2    -0.0     0.5     0.7    -0.0
     0.3     0.5    -0.5    -0.0    -0.0    -0.0     0.3     0.2     0.5     0.0
     0.2     0.3     0.0     0.2    -0.0     0.5     0.4    -0.3     0.3    -0.1
     0.2    -0.3    -0.4     0.6    -0.3     0.3     0.4     0.2     0.1    -0.1
     0.9    -0.4    -0.2     0.1    -0.5     0.6    -0.3     0.1     0.2     0.3
     0.5    -0.6     0.3    -0.2     0.2     0.1    -0.6     1.0    -0.5    -0.2
     0.6    -0.3    -0.2    -0.1     0.9     0.7    -0.3     0.1     1.2    -0.6
    -0.1     1.5    -1.1     0.3     0.7     0.2     0.0    -0.3     1.6    -0.7
    -0.1     1.2    -0.4    -0.0     0.4     0.7    -0.8     0.6     0.9    -0.4
     0.7    -0.2     0.7    -0.1    -0.1     0.7    -0.2     1.1     0.0    -0.3
     0.6     0.1    -0.1     0.7     0.6    -0.4     0.7    -0.1    -0.2     0.5
    -0.3     1.0     0.3    -0.4     0.5    -0.2     0.3     0.3    -0.3     0.3
     0.6     0.3    -0.1     0.4     0.1    -0.5     0.5     0.6    -0.0     0.2
     0.6    -0.2    -0.1     0.6    -0.1     0.3     0.5     0.2     0.2    -0.2
     0.2    -0.2     0.1     0.5     0.2     0.5     0.3     0.3     0.1    -0.1
     0.2    -0.1     0.3     0.8    -0.6    -0.0     1.7     0.2     0.7     0.6
    -0.5     1.1    -0.2    -0.8     0.9    -0.1     0.2     0.9    -0.2     0.9
     0.4    -0.1     0.7     0.5     0.4    -0.4     0.6    -0.2    -0.3     0.6
    -0.3     0.6     0.6     0.7     0.3     0.2     0.9    -0.8     0.1     0.7
    -0.9     0.3     1.0     0.2    -0.0    -0.2     0.6     0.5    -0.3     0.7
     0.2    -0.2     0.5    -0.1    -0.5     0.5    -0.1     0.0     1.0    -0.4
     0.6    -0.1    -0.9     1.0     0.1     0.4     0.1    -0.1     0.8    -0.4
    -0.4     0.6     0.1    -0.2     1.0     0.3     0.2     0.4    -0.3     0.8
    -0.7     0.1     0.7    -0.7     1.2    -0.3    -0.1     1.0    -0.3     0.6
     0.2     0.1     0.4    -0.1    -0.4     0.3     0.4    -0.3     0.3    -0.3
     0.4     0.8    -0.7     0.2     0.6    -0.1    -0.5    -0.3     0.1     0.0
    -0.2     0.3     0.1    -0.7     1.0    -0.3    -1.0     1.2    -0.4     0.1
    -0.1    -0.7     1.1    -0.3    -0.4     0.3    -0.2     0.2     0.4     0.3
    -0.1     0.1     0.6    -0.1    -0.5     0.9     0.8    -0.1     0.2     0.3
     0.5     0.1     0.1    -0.0     0.5     0.7     0.3     0.9     0.4     0.4
     0.3     0.0     0.1     0.6     0.4    -0.1     1.0    -0.2     1.0     1.3
    -0.6     1.3     0.2    -0.0     0.9    -0.1     0.8     0.1    -0.1     1.2
     0.1     0.8     1.2    -0.3     1.0     0.4    -0.3     1.0     0.5     0.1
    -0.1     0.1     0.7     1.0     0.2     0.7     0.7     0.1     0.6    -0.3
     0.5     0.1     0.1     1.3    -0.3     0.4     0.7     0.1     0.4     0.0
     0.2     0.2     0.5     0.6    -0.0     0.3     0.5     0.2     0.0     0.2
     0.9    -0.0    -0.4     1.1     0.7    -0.4     0.2     0.8     0.4     0.3
     0.6    -0.2    -0.1     0.5    -0.1     0.3     0.9     0.1     0.3     0.9
     0.2     0.5     0.7    -0.0     0.4    -0.2    -0.4     0.3    -0.4     0.3
     1.0     0.4     1.1     0.2     0.1     1.0    -0.3     0.3     0.3    -0.4
     0.5    -0.0     0.1     0.7     0.2     0.3     1.4     0.2    -0.3     0.8
    -0.2     0.0    -0.1    -0.2     0.5     0.1     0.5     0.4     0.9     0.2
    -0.2     1.3    -0.1    -0.2     0.4    -1.0     0.8     0.3    -0.7     0.9
     0.3     0.2     0.1     0.4     1.0    -0.1     0.6     0.4    -0.0     0.1
     0.1     0.8    -1.1    -0.4     0.8    -0.2     0.5     0.6     0.7     0.4
     0.0    -0.1    -0.1    -0.2    -0.2     0.5    -0.5     0.4     0.6    -0.6
     0.9    -0.0     0.2     0.9    -0.3     0.1    -1.1    -0.0     0.4    -0.9
     0.6     0.1     0.3     0.3     0.6     0.2    -0.8     0.7    -0.8    -0.2
     0.4    -1.1     0.2    -0.2     0.3     0.3    -0.2     0.1     0.2     0.3
    -0.5     0.0    -0.2    -0.4     0.3    -0.5    -0.5     0.2    -0.1     0.2
     1.0    -0.4     0.5     0.4    -0.5     1.0    -1.0    -0.5     0.3    -1.1
     0.4    -0.1    -0.2     1.0     0.1     0.1     0.7    -0.4    -0.2    -0.0
    -0.6    -0.5    -0.5    -0.0     0.2     0.1     0.0     0.2     0.1     0.1
     0.7    -0.5    -0.4    -0.1    -0.8    -0.6    -0.5    -0.2    -0.0     0.2
    -0.3     0.3     0.5     0.2    -0.1    -0.6     0.1    -0.9    -0.2    -0.4
    -0.6     0.8    -0.8     0.5     0.7    -0.4     0.5    -0.2    -0.3    -0.5
    -0.3     0.2    -0.3     0.3     0.1    -0.6     0.2     0.1     0.0    -0.1
    -0.2     1.2     0.3    -1.2    -0.3    -0.0    -0.3    -0.4    -0.1     0.2
    -0.1     0.4     0.1    -0.1     0.0     0.1     0.2    -0.3     0.6     0.1
    -0.4     0.3    -0.2    -0.1    -0.6     0.4     0.9    -0.5     0.6     0.5
    -0.3     0.3    -0.4     0.1    -0.2    -0.3     0.2    -0.7     0.8    -0.2
     0.2     0.8    -0.6     0.5    -0.4     0.2    -0.5    -1.0     0.7    -0.6
     0.0     0.0    -0.4     0.1    -0.6    -0.1    -0.3    -0.2     0.6    -0.2
    -0.2    -0.1    -0.2    -0.5    -0.2     0.6    -0.3    -0.4     0.6    -0.0
     0.1     0.1    -0.8    -0.2     0.4     0.1     0.3    -0.3    -0.8    -0.1
    -0.4    -0.4    -0.1    -0.1     0.1    -0.4     0.4     0.4    -0.4    -0.4
    -0.5     0.2    -0.7    -0.5    -0.3    -0.6     0.3    -0.3     0.4    -0.0
    -0.1     0.3    -0.7     0.0    -0.8    -0.8    -0.1    -0.5     0.1    -0.6
     0.1     0.5    -0.4     0.7    -0.3    -0.8     0.4    -0.0    -0.4    -0.7
    -0.4     0.4     0.1    -0.2     0.1     0.5     0.4     0.1     0.3    -0.3
    -0.7     0.2    -0.2    -0.3     0.3     0.0    -0.1    -0.2    -0.5    -0.0
     0.0    -0.6    -0.2    -0.3    -0.3     0.3    -0.7    -0.2     0.2    -0.4
     0.1    -0.1    -0.6    -0.2     0.4    -0.0    -0.2     0.3    -0.4    -0.3
     0.9    -0.8    -0.8     0.8    -0.7    -0.0     0.2    -0.2     0.3    -0.0
     0.5    -0.2     0.0     0.4    -0.3    -0.0    -0.6    -0.1     0.1    -0.3
     0.2     0.3     0.3    -0.1     0.2    -0.3    -0.3     0.4    -0.6     0.4
     0.4    -0.7     0.4     0.1     0.6     0.6    -0.4     0.2    -0.2     0.3
     0.5    -0.6     0.5     0.0    -0.4     0.8    -0.0     0.4     0.1    -0.4
     0.6    -0.2     0.2     0.2     0.1     0.7    -0.4    -0.4     0.4     0.1
     0.5    -0.2    -0.6     0.7     0.0    -0.1     0.6     0.1     0.2    -0.0
     0.2     0.1    -0.1     0.2    -0.3    -0.5    -0.1     0.2     0.7     1.1
    -0.2    -0.5     0.9    -0.3    -0.2     0.5    -1.2    -0.1    -0.0    -0.2
     0.7    -0.0    -0.2     0.1     0.4    -0.2    -0.3    -0.4    -0.4     0.6
    -0.3    -0.3     0.5     1.0     0.3    -0.2     0.6     0.3    -0.2    -0.3
     0.5    -0.0    -0.3     0.7     0.2    -0.1     0.5     0.4     0.0     0.6
    -0.4    -0.2     0.0    -0.5     0.8    -0.2     0.1     0.8     0.1     0.1
     0.4     0.6    -1.0     0.4     0.3    -0.6     0.8    -0.4     0.8     0.7
    -0.5     0.9     0.3    -0.2    -0.1    -0.4    -0.2     0.3     0.4    -0.2
     0.5     0.1    -0.3     0.7    -0.2    -0.1    -0.2    -0.4     0.4    -0.2
     0.2     0.4    -0.3     0.0     0.5    -0.3     0.1     0.3    -0.4     0.1
    -0.3     0.3    -0.5    -0.3     1.3    -0.1    -0.1     0.3     0.1     0.1
    -0.3     0.0    -0.0    -0.4    -0.1    -0.0     0.4     0.3    -0.3     0.3
     0.4     0.1    -0.4     0.1     0.1    -0.2     1.0    -0.3    -0.2     1.4
    -0.3    -0.1     0.1    -0.4     0.2    -0.2     0.3    -0.1     0.1     0.3
    -0.6     0.4     0.6     0.4    -0.6    -0.5     0.6    -0.4     0.3     0.3
    -0.3     0.4     0.2    -0.4    -0.1     0.6    -0.6    -0.4    -0.0    -0.5
     0.4    -0.1     0.3    -0.0    -0.1     0.6    -0.4    -0.1    -0.1    -0.3
     0.1    -0.6     0.1     0.1    -0.0     0.4    -0.1     0.1     0.2     0.4
     0.2    -0.3    -0.1    -0.1    -0.0     0.4    -0.1     0.2     0.5    -0.3
     0.7     0.2    -0.2     0.5    -0.1     0.2    -0.3    -0.1     0.4     0.1
     0.2     0.2     0.3    -0.1     0.2     0.5     0.2    -0.4     0.3     0.1
    -0.2     0.8    -0.3     0.5     0.5    -0.0     0.7    -0.2     0.7     0.7
     0.1     0.3    -0.1     0.0     0.4     0.3     0.3     0.7     0.0    -0.4
     0.6     0.5     0.0     0.3    -0.2     0.2     0.5    -0.3     0.5     0.2
    -0.4     0.3     0.2     0.2     0.1     0.3     0.5    -0.2     0.3     0.8
     0.0     0.2    -0.1    -0.0     0.1    -0.2     0.7     0.4     0.1    -0.3
     0.3     0.8    -0.7     0.3     0.2    -0.1     0.2    -0.7     0.6     0.4
    -0.1     0.1    -0.2     0.1     0.1     0.3    -0.3    -0.4     0.1    -0.3
    -0.3     0.0    -0.1     0.4     0.4    -0.5     0.3     0.3     0.1     0.2
    -0.4     0.4    -0.3     0.2     0.1    -0.6     1.1    -1.1    -0.1     1.0
    -0.7     0.7    -0.1     0.0     0.2    -0.5     0.3     0.1     0.3     0.1
    -0.5    -0.1     0.5     0.0    -0.1     0.5     0.0    -0.1     0.4     0.3
    -0.5     0.1     0.9    -0.6     0.1     0.8    -0.6     0.7     0.2    -0.3
     0.9    -0.4     0.6     0.2    -0.3     0.2    -0.3     0.7    -0.3    -0.1
     0.9    -0.1     0.2    -0.0    -0.0     0.1     0.1    -0.1    -0.1     0.3
    -0.2     0.2     0.3    -0.1     0.2     0.3     0.4     0.0    -0.4     0.5
     0.4    -0.1     0.4    -0.4     0.3     0.8    -0.7     0.4     0.7    -0.3
    -0.1     0.3     0.3    -0.3     0.4     0.2    -0.6     0.5     0.2    -0.2
     0.2     0.2     0.3    -0.6    -0.2     0.5    -0.2    -0.0    -0.4    -0.0
     0.1    -0.4     0.2    -0.1    -0.4     0.1     0.3    -0.5    -0.2     0.4
    -0.3    -0.2    -0.5     0.2     0.2    -0.5     0.4    -0.2    -0.1     0.4
    -0.3     0.1    -0.0    -0.3     0.2     0.3    -0.0    -0.1     0.1    -0.0
     0.0     0.0     0.4     0.2    -0.2    -0.1    -0.1     0.3    -0.2     0.4
     0.3    -0.4     1.1    -0.0    -0.2     1.0    -0.2    -0.1     0.1    -0.2
     0.6     0.4     0.1     0.1    -0.1     0.5    -0.4     0.2     0.7    -0.6
     0.4    -0.1     0.3     0.9    -0.3     0.1     0.1    -0.1     0.3     0.1
     0.1     0.6    -0.6    -0.4     1.0    -0.5    -0.1     0.3    -0.2     0.6
    -0.2     0.2     0.2    -0.3     0.5    -0.7     0.5     0.4    -0.7     1.4
    -0.5    -0.1     1.1    -0.4     0.2     0.1     0.2    -0.2     0.3     0.6
     0.1     1.2    -0.4    -0.1     1.0     0.2     0.1    -0.1     1.2    -0.1
     0.0     1.1    -0.6     0.4     0.4     0.6     0.0    -0.0     0.9    -0.2
     0.7     0.0     0.5     0.0    -0.2     0.9    -0.5     1.2    -0.2    -0.7
     1.5    -0.5     0.4     0.7    -0.1     0.3     0.2     0.3    -0.0     0.3
     0.2     0.1     0.4     0.5    -0.2     0.4     1.1    -0.8     0.5     0.8
    -0.8     0.4     0.8    -0.0    -0.3     1.0     0.2    -0.4     1.0     0.2
    -0.1     0.4     0.8    -0.4     0.1     0.7    -0.3     0.6    -0.1     0.3
     0.6    -0.2     0.5    -0.1     0.4     0.0    -0.0     1.0    -0.4     0.5
    -0.2    -0.2     1.1    -0.4     0.6     0.4    -0.2     0.7     0.2     0.1
    -0.3     0.0     0.5    -0.5    -0.1     0.1    -0.3     0.5    -0.2    -0.1
    -0.2    -0.2     0.8    -0.5     0.1     0.1    -0.4     0.6     0.1    -0.2
    -0.3     0.1     0.0     0.1     0.1    -0.0    -0.2    -0.5     0.4    -0.3
    -0.1     0.2    -0.3     0.1    -0.3     0.7     0.1    -0.5     0.8     0.1
    -0.3     0.2    -0.2     0.0     0.7    -0.3     0.1     0.6     0.2     0.6
    -0.3     0.1    -0.0    -0.3     0.3     0.2     0.1    -0.4     1.2     0.0
    -0.8     1.2     0.0    -0.0    -0.2    -0.5     0.7    -0.3    -0.6     0.3
    -0.1     0.8     0.4    -0.1     0.3    -0.4     0.8    -0.2    -0.7     1.1
     0.1    -0.0     0.3     0.5     0.0    -0.0     0.7    -0.2     0.3     0.3
    -0.2     0.1     0.4     0.5     0.0     0.8    -0.0     0.0     0.4    -0.3
     0.5    -0.0    -0.0     0.5     0.5     0.2    -0.2     1.2     0.4    -0.6
     0.5     0.1     0.0    -0.0     0.2     0.2    -0.5     0.4     0.8     0.2
     0.2    -0.1     0.0     0.4    -0.4     0.3     0.3    -0.6     0.6     0.3
     0.2     0.4    -0.3     0.7     0.2    -0.2     0.8    -0.1     0.0     0.7
    -0.4    -0.1     0.4     0.2     0.3     0.1     0.7    -0.1    -0.1     0.9
    -0.1     0.8    -0.2    -0.6     1.4    -0.5    -0.6     0.8     0.2     0.1
     0.5     0.6     0.2     0.6     0.2     0.0    -0.1    -0.4     0.5    -0.2
    -0.1     0.7     0.1     0.7    -0.2     0.0     1.2    -0.6    -0.4     0.3
    -0.6    -0.5     0.2    -0.5     0.4     1.1    -0.5     0.4     0.5    -0.2
    -0.1    -0.2    -0.2    -0.5     0.3    -0.0     0.3     0.5    -0.4     0.9
    -0.1    -0.2     0.5    -0.5     0.3    -0.2    -0.3     0.3     0.3    -0.0
    -0.2     0.7    -0.3     0.0     0.1    -0.6     0.6    -0.5    -0.2     0.1
    -0.2     0.5    -0.3     0.3    -0.2    -0.5     0.5    -0.3     0.2    -0.0
    -0.4     0.6     0.0     0.3     0.4    -0.2    -0.1     0.1     0.3    -0.4
    -0.2     0.2     0.0     0.1     0.0     0.5     0.1    -0.0     0.2    -0.3
    -0.1     0.0     0.0    -0.1     0.0     0.1    -0.2     0.4     0.5     0.1
     0.3    -0.1    -0.4    -0.1    -0.0     0.2     0.1     0.1     0.2    -0.1
     0.5    -0.1    -0.5     0.4    -0.6    -0.4     0.5    -0.4    -0.1     0.1
     0.1    -0.0    -0.2     0.4     0.1    -0.5    -0.1     0.2    -0.3    -0.4
     0.2     0.5     0.2    -0.3    -0.3     0.4     0.2    -0.5    -0.0    -0.1
     0.1    -0.2    -0.3     0.3    -0.0    -0.1    -0.2     0.0    -0.2    -0.0
    -0.1    -0.5    -0.2    -0.0     0.2    -0.4    -0.0     0.4     0.2    -0.5
