Uncorrected accelerogram 20141116_223317_TDHS_20 GNS Science
Site TDHS      37 37 60S  178 21 55E     Cusp file:  20141116_223342_TDHS
Te Araroa District High School
Instrument Cusp_42017
Resolution: 18-bit   Instr Period: 0.0050 s   Damping: 0.700
Accelerogram 20141116_223317_TDHS_20                 Processed 2016 February 21
151 km east of Tikitiki
2014 November 16         22:33:17 UT
Epicentre  37 35 50S 179 53 17W  Bearing N89E  Dist  154km  Depth   32km M  6.48
Number of points  35041    Duration 175.20 s
Raw readings in units of 1.00 mm/s/s  at intervals of 0.005 s
Data is unfiltered
Component S00W
Acceleration:  Peak   -208.4 mm/s/s at  63.60 s     RMS    21.53 mm/s/s
Velocity record unevaluated
Displacement record unevaluated
    2014      11      16      22      33     170       0       0    2014      11
      37      35      50     179      53      17      32       0      16      22
      37      37      60     178      21      55     180     180      89     154
   35041       0       0   35041       0       0       0       0      33    2693
   200.0    0.70    0.00   0.000  0.0000   0.000   0.000   1.000     0.0    0.00
  37.633 178.365  37.597-179.888    6.48    0.00    0.00    0.00      0.      0.
  175.20    0.00    0.00  175.20  0.0050  0.0050      0.      0.      0.  9806.6
  -208.4   63.60    21.5      0.      0.     0.0    0.00     0.0     0.0   0.000
    0.00    0.00    0.00    0.00   0.000    0.00    0.00    0.00    0.00   0.000
   0.000   0.000   0.000      0.      0.   0.000   0.000   0.000      0.      0.
    -0.0    -0.0     0.2     0.1    -0.0    -0.1    -0.1    -0.1    -0.1     0.1
     0.1     0.0    -0.0    -0.1     0.0     0.1     0.1    -0.0    -0.2    -0.1
     0.1     0.1    -0.1    -0.1    -0.0    -0.0     0.0     0.1     0.2     0.1
     0.2     0.1    -0.1    -0.0    -0.0     0.0     0.1     0.0    -0.0    -0.2
    -0.3    -0.1    -0.1    -0.0     0.2     0.0    -0.0     0.1     0.1     0.1
     0.0    -0.2     0.0     0.1     0.1     0.1     0.0    -0.0    -0.2    -0.1
     0.1     0.0     0.0    -0.1    -0.0     0.1    -0.0    -0.1    -0.1     0.1
     0.1    -0.0    -0.0    -0.0     0.2     0.3     0.1     0.0    -0.0    -0.1
    -0.0     0.1     0.1     0.0    -0.0    -0.0    -0.1    -0.1    -0.0    -0.1
    -0.1     0.0    -0.1    -0.1     0.0     0.1    -0.0     0.1     0.1    -0.1
    -0.0     0.1     0.0     0.0     0.1     0.1     0.1     0.0    -0.1     0.1
     0.2    -0.1     0.0     0.1    -0.0     0.1    -0.1    -0.1    -0.0    -0.1
    -0.2     0.0     0.1     0.0     0.1     0.2     0.1     0.1     0.1     0.1
     0.1    -0.0     0.0    -0.1    -0.2     0.1    -0.0     0.0     0.1    -0.1
    -0.3    -0.0     0.4     0.1    -0.4    -0.1     0.4     0.2    -0.3    -0.6
    -0.2     0.4     0.5     0.1    -0.2    -0.1     0.0    -0.2     0.1     0.2
     0.1     0.2     0.0    -0.0     0.1    -0.1    -0.0     0.3     0.2    -0.1
    -0.0     0.1    -0.1    -0.0    -0.2    -0.2     0.2     0.2     0.0    -0.1
    -0.1     0.1     0.1    -0.0    -0.3    -0.1     0.1     0.1     0.1    -0.0
     0.1     0.0    -0.1     0.0    -0.0    -0.1    -0.2     0.1     0.2     0.1
     0.0    -0.1    -0.0     0.1     0.1    -0.1    -0.1     0.1     0.3     0.2
    -0.0    -0.0     0.0    -0.1    -0.1    -0.0     0.1     0.2     0.0     0.0
     0.0     0.0     0.1    -0.1    -0.3    -0.1     0.1     0.1     0.1     0.2
     0.0    -0.1     0.1     0.2     0.2     0.1     0.1     0.1    -0.0    -0.1
    -0.0     0.1     0.1     0.1     0.2     0.0    -0.1    -0.0    -0.1     0.0
     0.1     0.1     0.2     0.1     0.1     0.1     0.0     0.0     0.1     0.0
     0.0     0.1     0.0     0.0     0.2     0.1    -0.1    -0.0     0.0     0.1
     0.2     0.1    -0.0     0.0     0.1    -0.0     0.1     0.1    -0.1    -0.1
     0.0     0.1     0.1     0.1     0.1     0.1    -0.0    -0.1     0.0    -0.1
    -0.2    -0.0     0.0     0.1     0.2    -0.1     0.0     0.0    -0.2    -0.1
    -0.0     0.1     0.2     0.1     0.0    -0.1    -0.0     0.1    -0.0     0.1
    -0.1    -0.1     0.1     0.0     0.1    -0.1    -0.0    -0.3    -0.2     0.4
    -0.3     0.5     0.4    -0.2    -0.2    -0.8     0.3    -0.4    -0.4     0.1
    -0.3     0.9     0.1     0.5     0.1    -0.8     0.2    -0.4     0.0     0.1
     0.5     0.4    -0.2     0.2    -0.5    -0.5    -0.4     0.3     0.7    -0.1
     0.1    -0.0     0.3     0.1    -0.2     0.3    -0.4    -0.2    -0.3    -0.0
     1.0     0.2    -0.2    -0.3    -0.5    -0.5    -0.4     0.6     0.6     0.1
     0.1    -0.2     0.4     0.0    -0.3     0.2    -0.3    -0.1     0.1     0.1
     0.3    -0.2    -0.1     0.1     0.2     0.2     0.1     0.4     0.1    -0.3
    -0.1     0.1    -0.1    -0.1     0.0     0.2     0.3     0.1    -0.1    -0.2
    -0.2     0.0     0.1     0.3     0.2    -0.1    -0.2    -0.0     0.2    -0.1
    -0.2    -0.1    -0.1    -0.1     0.0     0.2     0.2    -0.1    -0.2    -0.2
     0.0     0.1     0.2     0.1     0.0     0.0     0.1     0.1     0.1     0.1
     0.1     0.1     0.0     0.1     0.2     0.1     0.1     0.1    -0.2    -0.1
     0.1     0.1     0.1     0.1     0.1     0.1    -0.0    -0.1    -0.0     0.0
    -0.0    -0.0     0.0    -0.1    -0.1     0.0    -0.0     0.1     0.2     0.1
     0.0     0.0     0.1     0.1     0.0    -0.1     0.1     0.2     0.0     0.0
     0.0    -0.1    -0.1    -0.0    -0.2     0.0     0.4     0.0    -0.0     0.1
     0.0     0.1    -0.0    -0.0     0.0     0.3     0.3     0.1     0.1    -0.2
    -0.2     0.1     0.2     0.3     0.3     0.2     0.1    -0.1    -0.3    -0.1
     0.1    -0.1     0.0     0.2     0.2     0.1    -0.2    -0.2     0.1     0.2
     0.1     0.2     0.1    -0.4    -0.3     0.1    -0.0    -0.0    -0.0     0.1
     0.3     0.0     0.1     0.1    -0.2     0.0     0.2    -0.0    -0.0     0.0
    -0.1    -0.1    -0.1     0.0     0.2     0.1     0.0     0.0     0.2     0.0
    -0.3    -0.1     0.1    -0.1    -0.0     0.1    -0.1     0.1     0.1     0.0
    -0.0    -0.1    -0.1    -0.0    -0.2    -0.1     0.1     0.1     0.1     0.1
    -0.1     0.1     0.0    -0.1    -0.0    -0.1     0.1     0.2     0.1     0.1
     0.1     0.1    -0.0    -0.2    -0.1    -0.0     0.1     0.2     0.2     0.1
    -0.1    -0.2    -0.1    -0.0     0.2     0.2     0.2     0.2    -0.0     0.1
     0.3     0.2     0.1    -0.1     0.0     0.1    -0.0    -0.2    -0.2    -0.1
     0.0     0.1     0.1     0.2     0.1     0.0    -0.1    -0.0     0.1    -0.1
     0.1     0.1     0.1     0.0    -0.1    -0.1    -0.4    -0.1     0.2     0.1
     0.2     0.0     0.0     0.1     0.1     0.2     0.2     0.3     0.2    -0.1
    -0.7    -0.7     0.0     0.2     0.5     0.5     0.3     0.2    -0.7    -0.4
     0.6     0.1    -0.2    -0.3    -0.1     0.3     0.1     0.1     0.2    -0.3
    -0.2     0.4     0.2    -0.1     0.1    -0.2    -0.6    -0.5    -0.2     0.4
     0.3    -0.2    -0.2     0.2     0.3    -0.0    -0.0    -0.0    -0.2    -0.2
     0.0     0.3    -0.0     0.0     0.0    -0.2     0.2     0.2    -0.0     0.1
     0.1     0.1     0.2     0.0    -0.1    -0.1    -0.2    -0.1    -0.1    -0.2
    -0.1    -0.0    -0.1    -0.0    -0.0    -0.1    -0.0    -0.0     0.0     0.2
     0.2     0.2    -0.2    -0.3    -0.0    -0.1     0.1     0.2     0.1    -0.0
    -0.2    -0.0    -0.1    -0.1     0.0    -0.0     0.1     0.0    -0.0    -0.0
    -0.2    -0.2    -0.2    -0.1     0.2     0.2     0.2     0.0    -0.2    -0.2
    -0.1    -0.0     0.0     0.1    -0.1     0.1     0.3     0.0    -0.1    -0.1
     0.1     0.2    -0.1    -0.3    -0.2     0.1    -0.1    -0.1     0.1    -0.2
     0.1     0.3     0.1    -0.0    -0.2     0.0     0.1     0.2     0.3    -0.2
    -0.0     0.2    -0.2    -0.2    -0.3     0.1     0.2     0.0    -0.1    -0.1
     0.1     0.1    -0.1    -0.1    -0.1     0.0    -0.0    -0.1     0.1     0.1
    -0.1    -0.2    -0.1     0.0    -0.1    -0.1     0.4     0.1     0.0     0.1
    -0.1    -0.1    -0.2     0.2     0.4     0.5     0.2    -0.3    -0.0     0.3
    -1.2    -1.5     2.2     0.7    -0.6     1.2    -2.0    -0.8     1.1    -1.1
     0.2     0.1     0.1     1.2     0.2    -0.5     0.2     0.1    -0.9     0.0
    -0.2    -0.4     0.4    -0.6     0.2     0.3    -0.7     0.6     0.4    -0.2
     0.1    -0.4    -0.4     0.4     0.2    -0.5    -0.4     0.1     0.4     0.3
    -0.2    -0.1     0.1     0.1     0.1     0.3    -0.1    -0.3    -0.2    -0.4
    -0.0     0.2     0.1     0.3    -0.1    -0.1     0.2    -0.2    -0.2    -0.1
    -0.3    -0.1     0.2     0.4     0.1    -0.1    -0.2    -0.3     0.1     0.1
    -0.0     0.1     0.0    -0.0    -0.1    -0.1    -0.1    -0.1    -0.3    -0.2
    -0.0     0.0     0.1     0.0    -0.1     0.0     0.2     0.1    -0.4    -0.4
     0.8     0.1    -1.0     0.3     0.4    -0.1    -0.3    -0.1    -0.4     0.2
     0.7     0.0     0.4    -1.6     0.4     2.1    -0.3     1.1    -1.9    -1.4
     0.2    -2.4     1.7     2.3    -0.4     0.1     0.6    -0.4    -1.5    -0.2
     0.6     2.1     0.0    -2.4     0.4     0.7    -0.8    -0.6     0.3    -0.2
    -0.7     0.3     0.4     0.1    -0.1     0.5     0.1    -0.9     0.4     0.1
    -0.6     0.3     0.2     0.1     0.3    -0.1    -0.3     0.2    -0.1    -0.4
    -0.0    -0.2    -0.1     0.1    -0.1     0.1     0.1    -0.2     0.2     0.3
    -0.2     0.0    -0.1    -0.0     0.2    -0.3    -0.2     0.3    -0.0    -0.1
     0.1    -0.1    -0.1     0.2    -0.0    -0.1     0.1     0.2     0.2     0.0
     0.0    -0.1    -0.0    -0.0    -0.3    -0.1     0.2     0.4    -0.0    -0.1
    -0.1    -0.0     0.1    -0.2     0.0    -0.1     0.3     0.4    -0.4     0.1
    -0.2    -0.3     0.1    -0.2     0.2     0.6     0.2    -0.1    -0.4    -0.3
     0.2    -0.2     0.0     1.2     0.6    -0.6    -1.1    -0.8    -0.4    -0.1
     0.3    -0.2     0.1     0.4    -0.2     0.0     0.1    -0.2    -0.2    -0.1
    -0.1     0.0     0.0    -0.1     0.1     0.0    -0.0     0.3     0.4    -0.0
     0.0     0.3     0.1    -0.2    -0.1    -0.1    -0.4    -0.1     0.1    -0.1
    -0.1     0.1     0.5     0.3    -0.0    -0.1    -0.3    -0.2    -0.1    -0.1
     0.1     0.1     0.0     0.0     0.0     0.0    -0.0    -0.2    -0.0     0.0
    -0.0    -0.1    -0.0     0.2     0.2    -0.2    -0.1     0.0    -0.0    -0.1
    -0.1     0.0     0.0     0.0     0.1     0.2     0.1    -0.0    -0.1    -0.1
    -0.1    -0.0     0.0     0.0     0.1     0.0    -0.1    -0.0    -0.0     0.0
     0.1    -0.2    -0.1     0.0    -0.1     0.1     0.1    -0.1     0.1     0.1
     0.0     0.3     0.2    -0.2    -0.1    -0.1     0.1     0.4     0.1     0.3
     0.3     0.3     0.2    -0.1    -0.2     0.0     0.2     0.1     0.2    -0.2
    -0.1     0.3     0.2    -0.1    -0.2    -0.1    -0.2    -0.2    -0.3     0.1
     0.1    -0.1    -0.1    -0.1    -0.0    -0.0     0.0     0.2     0.2     0.1
     0.0     0.0    -0.1    -0.2     0.0     0.1     0.0     0.0     0.1     0.0
     0.1     0.1    -0.0    -0.1    -0.0    -0.0    -0.0    -0.2    -0.2     0.0
    -0.0    -0.1     0.1     0.3     0.2    -0.3    -0.1     0.1    -0.1    -0.3
    -0.2    -0.0    -0.2    -0.1     0.1     0.0     0.1     0.2     0.1     0.0
     0.0    -0.1     0.0    -0.0    -0.2    -0.1    -0.1    -0.0     0.0    -0.0
    -0.0    -0.1     0.0     0.0    -0.0     0.1    -0.0     0.1     0.1    -0.2
    -0.2    -0.1     0.1    -0.0    -0.1     0.0    -0.1    -0.1    -0.0     0.0
     0.2     0.1     0.0    -0.0     0.0     0.0     0.1     0.1    -0.2     0.1
    -0.1    -0.0     0.3    -0.4    -0.4     0.0     0.1    -0.2    -0.4     0.1
    -0.1     0.2     0.4     0.0    -0.0    -0.1     0.1    -0.1    -0.4    -0.2
    -0.1     0.1     0.1    -0.1    -0.1     0.4     0.4    -0.3    -0.3    -0.2
     0.0     0.2    -0.2    -0.2     0.1    -0.2    -0.3    -0.3    -0.3    -0.2
    -0.1     0.1     0.2     0.2     0.1    -0.1    -0.1    -0.2    -0.0     0.1
     0.0    -0.1    -0.1     0.0    -0.0    -0.1    -0.1    -0.1    -0.1     0.0
     0.0    -0.0     0.1    -0.0    -0.2    -0.1    -0.1    -0.0    -0.1    -0.0
     0.1     0.0     0.1     0.1     0.0     0.1     0.0     0.1     0.1    -0.0
     0.0    -0.0     0.0     0.0    -0.1    -0.2    -0.0     0.0    -0.0    -0.1
     0.0     0.1     0.0    -0.0    -0.1     0.0     0.2     0.1    -0.1    -0.1
    -0.1    -0.0    -0.1    -0.2     0.0     0.1    -0.0     0.1     0.1    -0.1
    -0.2     0.0     0.1    -0.2    -0.2     0.1     0.3     0.0    -0.2    -0.3
    -0.2     0.1     0.2     0.1    -0.1    -0.2     0.2     0.2     0.2     0.0
    -0.2     0.1    -0.2    -0.0    -0.2    -0.6    -0.0    -0.1     0.1     0.1
     0.0     0.4     0.2    -0.1    -0.0    -0.2    -0.1    -0.0    -0.1     0.4
     0.5     0.1    -0.2    -0.7    -0.1     0.3    -0.0     0.0    -0.2    -0.1
    -0.0    -0.2    -0.1    -0.0    -0.2    -0.3     0.0    -0.1    -0.3    -0.1
    -0.1    -0.0    -0.1    -0.1     0.1     0.1     0.1     0.1     0.0    -0.1
    -0.1    -0.1    -0.2    -0.1    -0.1    -0.1    -0.2    -0.2    -0.0    -0.1
    -0.1     0.1    -0.0    -0.1     0.1    -0.0    -0.0     0.0    -0.0    -0.0
    -0.1    -0.0     0.0     0.1     0.0     0.0     0.0    -0.2    -0.1    -0.2
    -0.2    -0.0     0.0     0.0     0.1     0.1    -0.0    -0.1    -0.1     0.0
     0.0    -0.1    -0.0     0.0    -0.1     0.0     0.0    -0.1    -0.1    -0.0
    -0.0    -0.1    -0.1    -0.1    -0.1    -0.1    -0.0     0.1     0.0     0.0
    -0.0    -0.1    -0.1    -0.1    -0.1    -0.2    -0.2    -0.1     0.0     0.0
    -0.0    -0.0     0.0     0.1     0.0    -0.1    -0.0    -0.1    -0.2     0.1
    -0.1     0.0     0.1     0.0    -0.1    -0.2     0.2     0.0    -0.1     0.1
    -0.0     0.1    -0.2    -0.2    -0.0    -0.2     0.1     0.1     0.1     0.1
    -0.2    -0.0     0.1    -0.1     0.2    -0.2    -0.1     0.8     0.3    -0.4
    -0.4    -0.2    -0.1    -0.1     0.2    -0.1    -0.3    -0.1    -0.1    -0.2
    -0.3    -0.3    -0.2    -0.0     0.1     0.0     0.1     0.1    -0.1    -0.1
    -0.0    -0.1     0.0     0.0     0.1     0.1     0.0     0.1    -0.1     0.1
     0.1     0.0     0.0    -0.1    -0.1    -0.1    -0.1     0.1     0.0     0.0
     0.0    -0.1    -0.0     0.2     0.2     0.1     0.1     0.1     0.0    -0.1
    -0.2    -0.1     0.0    -0.0    -0.1     0.0     0.1     0.0    -0.0    -0.0
    -0.0     0.0     0.1     0.1     0.0    -0.0    -0.0    -0.1    -0.0    -0.0
    -0.1     0.1     0.1     0.0     0.1     0.1     0.1     0.1     0.1     0.0
    -0.1    -0.3    -0.2     0.0     0.1     0.1     0.0     0.1    -0.0     0.0
    -0.1    -0.1     0.1    -0.0    -0.0     0.1     0.0     0.1    -0.0     0.0
     0.0    -0.0     0.1    -0.1    -0.1    -0.1     0.0     0.1    -0.1     0.2
    -0.2    -0.1     0.2    -0.3     0.1     0.2    -0.2     0.2     0.1    -0.0
     0.0     0.0     0.0    -0.0     0.1    -0.1     0.0     0.1    -0.2     0.2
     0.3    -0.0    -0.3    -0.4    -0.2    -0.0     0.3     0.3    -0.0    -0.1
    -0.2    -0.1     0.0    -0.1    -0.0    -0.1    -0.1     0.1    -0.0    -0.1
     0.0    -0.1     0.0     0.1    -0.0     0.0    -0.1    -0.1     0.1     0.1
     0.0     0.0     0.2     0.1     0.0     0.1     0.1    -0.0    -0.0     0.1
     0.1     0.0     0.1     0.1     0.1     0.0     0.1    -0.0    -0.1     0.0
     0.2     0.1    -0.0     0.1     0.1    -0.1    -0.1    -0.1     0.1     0.2
     0.2     0.0    -0.3    -0.2    -0.0     0.1     0.0    -0.1     0.2     0.3
     0.3     0.1    -0.1     0.0    -0.1    -0.4    -0.2    -0.1    -0.0     0.1
    -0.1    -0.0     0.1     0.1     0.3     0.1    -0.0    -0.1    -0.1    -0.1
    -0.2    -0.3    -0.1     0.0    -0.1     0.0    -0.0    -0.1     0.2     0.0
     0.3     0.0    -0.3     0.2    -0.1     0.1     0.1    -0.2     0.0    -0.2
    -0.2    -0.0    -0.0     0.0    -0.1    -0.1    -0.1    -0.1     0.1     0.2
     0.3     0.0    -0.2     0.2     0.1     0.1     0.4     0.1     0.0    -0.4
    -0.3     0.4    -0.1    -0.1    -0.2    -0.3     0.4     0.1     0.3     0.3
    -0.1     0.2    -0.1    -0.1    -0.2    -0.2     0.0    -0.2    -0.2    -0.2
    -0.2    -0.0    -0.1     0.0     0.0     0.0     0.0    -0.1    -0.2    -0.1
    -0.0    -0.1     0.1     0.1    -0.0     0.1     0.1     0.1    -0.1    -0.1
    -0.1     0.0     0.1    -0.0    -0.1    -0.0    -0.1    -0.2     0.1     0.1
     0.3     0.2    -0.2    -0.0    -0.1     0.1    -0.0    -0.3     0.2     0.3
    -0.0    -0.1     0.1     0.2     0.0    -0.1     0.1     0.2    -0.1    -0.1
     0.1     0.0     0.0     0.0     0.1     0.1    -0.2    -0.1     0.1     0.1
     0.0     0.1     0.1    -0.2     0.0     0.2    -0.2     0.1     0.1    -0.1
     0.5     0.1    -0.4    -0.2     0.5     0.1    -0.5     0.3     0.2    -0.2
    -0.1    -0.0     0.1     0.0     0.1     0.2    -0.1    -0.2    -0.4    -0.4
    -0.0    -0.3     0.2     0.5    -0.4     0.5     0.2    -0.7     0.4    -0.1
    -0.3     0.3     0.1    -0.0    -0.1     0.2     0.1    -0.3    -0.3    -0.2
     0.2     0.3    -0.2    -0.3    -0.1     0.1     0.2     0.1    -0.0     0.0
    -0.0     0.1     0.2     0.2    -0.1    -0.2    -0.1    -0.0    -0.1    -0.1
    -0.0     0.1     0.0     0.0     0.0     0.0    -0.1    -0.2    -0.2     0.1
     0.1    -0.0     0.1     0.2    -0.0    -0.1    -0.1    -0.1    -0.0     0.0
    -0.1     0.0     0.0    -0.1    -0.1    -0.0    -0.1    -0.1     0.1     0.1
    -0.0     0.1     0.1     0.1     0.1     0.0    -0.1    -0.1    -0.1    -0.0
     0.0     0.1     0.1     0.1     0.1    -0.0     0.1     0.0    -0.1     0.3
     0.3     0.2     0.0     0.3     0.4    -0.4    -0.3    -0.4    -0.3     0.1
    -0.2    -0.0    -0.1     0.1     0.4     0.0     0.1     0.3     0.3     0.1
     0.1    -0.0    -0.1     0.0     0.0     0.1     0.1    -0.0    -0.1    -0.1
    -0.0    -0.0     0.0     0.2     0.1     0.1     0.2     0.0    -0.2    -0.1
    -0.2    -0.1     0.1    -0.0     0.1     0.1     0.1     0.2     0.1     0.1
     0.1    -0.0     0.1     0.0    -0.0    -0.0     0.1     0.2     0.0     0.1
     0.2     0.3     0.3     0.1     0.1    -0.0    -0.1    -0.1     0.0     0.2
     0.0     0.2     0.3     0.1     0.1     0.0    -0.0    -0.0     0.0     0.2
    -0.0    -0.1     0.0    -0.0     0.1     0.1     0.2     0.1    -0.1     0.0
     0.1    -0.0     0.0     0.1     0.1    -0.1    -0.2    -0.0     0.2     0.0
    -0.3    -0.1     0.3     0.5     0.1    -0.3    -0.2     0.1     0.3     0.2
    -0.1    -0.2    -0.2    -0.0     0.3     0.3     0.1     0.0    -0.1    -0.1
    -0.1    -0.2    -0.1    -0.0    -0.1     0.0     0.1     0.1     0.1    -0.1
    -0.1     0.1    -0.1    -0.1    -0.0    -0.1     0.1     0.1    -0.1    -0.0
    -0.0    -0.0    -0.1    -0.2    -0.2    -0.1     0.0     0.0     0.2     0.0
    -0.1    -0.1    -0.2    -0.1     0.1     0.1     0.1     0.0     0.1    -0.1
    -0.2    -0.1    -0.1     0.0     0.1     0.1    -0.1     0.1     0.1    -0.1
    -0.2    -0.1    -0.1     0.0     0.3     0.1     0.1     0.3     0.1    -0.1
    -0.2    -0.1    -0.1    -0.1     0.1     0.2    -0.1    -0.0     0.3     0.2
    -0.2    -0.2    -0.0     0.1     0.2     0.1    -0.0     0.1     0.0    -0.1
     0.1     0.0    -0.1     0.0     0.0    -0.0     0.0     0.2     0.2     0.2
     0.1    -0.1     0.0     0.0    -0.2    -0.0    -0.0     0.1     0.2     0.1
     0.1     0.2     0.1    -0.1    -0.1     0.0     0.1     0.1    -0.1    -0.0
    -0.1    -0.1    -0.0     0.0     0.1     0.2     0.1    -0.1    -0.1     0.0
    -0.1    -0.2    -0.1    -0.1     0.2     0.3     0.1     0.0    -0.0    -0.0
     0.0     0.1     0.1     0.1     0.0     0.1    -0.1    -0.1     0.1    -0.1
     0.1     0.2     0.1    -0.1    -0.2    -0.2    -0.0     0.2     0.1     0.1
     0.2     0.1     0.1     0.0    -0.1    -0.0    -0.1    -0.1    -0.1     0.0
     0.2     0.1    -0.1    -0.2    -0.1     0.2     0.2     0.1     0.1     0.1
