Uncorrected accelerogram 20141116_223317_MXZ_20 GNS Science
Site MXZ       37 33 44S  178 18 24E     Basalt file:  20141116_223342_MXZ
Matakaoa Point
Instrument Basalt_2141
Resolution: 24-bit   Instr Period: 0.0050 s   Damping: 0.700
Accelerogram 20141116_223317_MXZ_20                  Processed 2016 February 21
151 km east of Tikitiki
2014 November 16         22:33:17 UT
Epicentre  37 35 50S 179 53 17W  Bearing S88E  Dist  160km  Depth   32km M  6.48
Number of points  26600    Duration 133.00 s
Raw readings in units of 1.00 mm/s/s  at intervals of 0.005 s
Data is unfiltered
Component S90E
Acceleration:  Peak   -125.9 mm/s/s at  62.76 s     RMS     8.99 mm/s/s
Velocity record unevaluated
Displacement record unevaluated
    2014      11      16      22      33     170       0       0    2014      11
      37      35      50     179      53      17      32       0      16      22
      37      33      44     178      18      24      90      90      92     160
   26600       0       0   26600       0       0       0       0      33    2000
   200.0    0.70    0.00   0.000  0.0000   0.000   0.000   1.000     0.0    0.00
  37.562 178.307  37.597-179.888    6.48    0.00    0.00    0.00      0.      0.
  133.00    0.00    0.00  133.00  0.0050  0.0050      0.      0.      0.  9806.6
  -125.9   62.76     9.0      0.      0.     0.0    0.00     0.0     0.0   0.000
    0.00    0.00    0.00    0.00   0.000    0.00    0.00    0.00    0.00   0.000
   0.000   0.000   0.000      0.      0.   0.000   0.000   0.000      0.      0.
     0.0    -0.1    -0.0    -0.0    -0.0    -0.1    -0.0     0.1    -0.0    -0.1
    -0.1     0.1    -0.0    -0.1    -0.0     0.0     0.0    -0.1    -0.0     0.1
    -0.0    -0.1    -0.1    -0.0     0.0    -0.1    -0.1     0.1    -0.0    -0.1
    -0.1     0.0     0.1    -0.1    -0.1     0.0    -0.0    -0.1    -0.0     0.1
     0.0    -0.1    -0.0    -0.0    -0.0    -0.1    -0.0     0.0    -0.0    -0.1
    -0.0     0.0    -0.0    -0.1    -0.0     0.0    -0.0    -0.1    -0.1     0.1
     0.0    -0.1    -0.1     0.0     0.0    -0.1    -0.1     0.0    -0.0    -0.1
    -0.1     0.0     0.0    -0.1    -0.1     0.0    -0.0    -0.1    -0.0     0.0
     0.0    -0.1    -0.1     0.1     0.0    -0.1    -0.0     0.0    -0.0    -0.1
    -0.0     0.1    -0.0    -0.1    -0.1     0.1    -0.0    -0.1    -0.1     0.0
     0.0    -0.1    -0.1     0.1     0.0    -0.1    -0.0     0.0    -0.0    -0.1
    -0.1     0.1     0.0    -0.1    -0.0     0.0    -0.0    -0.1    -0.1     0.0
     0.0    -0.1    -0.0     0.1    -0.0    -0.1    -0.0     0.0     0.0    -0.1
    -0.1     0.1     0.0    -0.1    -0.0     0.0    -0.0    -0.1    -0.0     0.0
     0.0    -0.1    -0.1     0.1    -0.0    -0.1    -0.0     0.0     0.0    -0.1
    -0.1     0.0    -0.0    -0.1    -0.0     0.1     0.0    -0.1    -0.1     0.0
     0.0    -0.1    -0.1     0.1    -0.0    -0.1    -0.0     0.0     0.1    -0.1
    -0.1     0.0     0.0    -0.1    -0.0     0.0     0.0    -0.1    -0.1     0.1
    -0.0    -0.1    -0.0    -0.0     0.0    -0.1    -0.0     0.0     0.0    -0.0
    -0.1     0.0     0.1    -0.1    -0.0     0.0     0.1    -0.1    -0.1     0.1
     0.0    -0.1    -0.1     0.0     0.0    -0.1    -0.0     0.0     0.0    -0.1
    -0.1     0.0    -0.0    -0.1    -0.1     0.0    -0.0    -0.1    -0.1     0.0
     0.0    -0.1    -0.0     0.1     0.0    -0.1    -0.1     0.0     0.0    -0.1
    -0.0     0.0     0.0    -0.1    -0.1     0.0     0.0    -0.1    -0.1     0.0
     0.0    -0.1    -0.1    -0.0     0.0    -0.1    -0.0     0.0    -0.0    -0.0
    -0.1     0.0     0.0    -0.1    -0.0     0.0    -0.0    -0.1    -0.1     0.1
     0.1    -0.1    -0.1     0.0     0.1    -0.0    -0.1     0.0    -0.0    -0.1
    -0.1     0.1     0.1    -0.1    -0.0    -0.0    -0.0    -0.1    -0.1     0.0
     0.1    -0.1    -0.1     0.0     0.0    -0.1    -0.0     0.0     0.0    -0.1
    -0.1     0.1     0.0    -0.0    -0.1    -0.0    -0.0    -0.1    -0.0     0.0
     0.0    -0.1    -0.1     0.1     0.0    -0.1    -0.1    -0.0     0.0    -0.1
    -0.0     0.1     0.0    -0.1    -0.1     0.0     0.0    -0.1    -0.0     0.0
     0.0    -0.1    -0.1     0.1     0.0    -0.0    -0.0    -0.0     0.0    -0.1
    -0.1     0.0    -0.0    -0.1    -0.1     0.0     0.0    -0.1    -0.1     0.0
     0.0    -0.1    -0.0     0.1     0.0    -0.1    -0.1     0.0     0.1    -0.1
    -0.1     0.1     0.0    -0.1    -0.1     0.0     0.0    -0.0    -0.1     0.0
     0.1    -0.1    -0.1     0.0     0.0    -0.1    -0.1     0.1    -0.0    -0.1
    -0.0    -0.0     0.0    -0.1    -0.0     0.0    -0.0    -0.1    -0.1     0.0
     0.0    -0.0    -0.1     0.0     0.0    -0.1    -0.1     0.0     0.1    -0.1
    -0.1     0.0     0.0    -0.1    -0.1     0.0     0.1    -0.1    -0.1    -0.0
     0.0    -0.1    -0.1     0.0     0.0    -0.1    -0.1     0.0     0.0    -0.1
    -0.0     0.0     0.0    -0.1    -0.1     0.1     0.0    -0.1    -0.1     0.0
     0.0    -0.1    -0.1     0.0     0.0    -0.1    -0.1     0.0     0.0    -0.1
    -0.1    -0.0     0.0    -0.1    -0.1     0.0     0.0    -0.1    -0.1     0.0
     0.1    -0.1    -0.1     0.0     0.0    -0.1    -0.1     0.0    -0.0    -0.0
    -0.1     0.0     0.1    -0.1    -0.1     0.0     0.0    -0.0    -0.1    -0.0
     0.0    -0.1    -0.1     0.0     0.0    -0.1    -0.1     0.1     0.1    -0.1
    -0.1     0.0     0.0    -0.0    -0.1     0.0     0.0    -0.1    -0.1     0.0
     0.0    -0.0    -0.1    -0.0     0.0    -0.1    -0.1     0.0     0.0    -0.1
    -0.1     0.0     0.0    -0.0    -0.1     0.0    -0.0    -0.1    -0.0     0.0
     0.0    -0.1    -0.1     0.1     0.0    -0.1    -0.1     0.0     0.0    -0.1
    -0.1     0.0     0.0    -0.1    -0.1     0.1     0.1    -0.1    -0.1     0.0
     0.0    -0.1    -0.1     0.0     0.0    -0.1    -0.1    -0.0     0.1    -0.0
    -0.1     0.0    -0.0    -0.0    -0.0     0.0     0.0    -0.1    -0.1    -0.0
     0.1    -0.0    -0.1    -0.0    -0.0    -0.1    -0.1     0.1     0.0    -0.1
    -0.1    -0.0     0.1    -0.0    -0.0     0.0    -0.0    -0.1    -0.1     0.1
     0.0    -0.1    -0.1    -0.0     0.0    -0.0    -0.0     0.0     0.0    -0.1
    -0.1    -0.0     0.0    -0.0    -0.1     0.0     0.0    -0.1    -0.1     0.0
     0.0    -0.1    -0.1    -0.0     0.1    -0.0    -0.1    -0.0     0.0    -0.0
    -0.1     0.0     0.0    -0.0    -0.0    -0.0     0.0    -0.1    -0.1     0.0
     0.1    -0.0    -0.1    -0.0     0.0    -0.0    -0.1     0.0     0.0    -0.1
    -0.1     0.0     0.1    -0.1    -0.1     0.0     0.1    -0.1    -0.0     0.0
     0.0    -0.0    -0.1     0.0     0.1    -0.1    -0.1    -0.0     0.0    -0.0
    -0.1    -0.0     0.0    -0.0    -0.1     0.0     0.0    -0.0    -0.1    -0.0
     0.0    -0.0    -0.1    -0.0     0.1    -0.1    -0.1    -0.0     0.1    -0.0
    -0.2     0.1     0.1    -0.2    -0.1     0.1     0.1    -0.0    -0.2     0.0
     0.0    -0.1    -0.1    -0.0     0.0    -0.1    -0.1    -0.0     0.1    -0.0
    -0.1    -0.0     0.0    -0.0    -0.1     0.0     0.1    -0.0    -0.1    -0.0
     0.0    -0.1    -0.1     0.0     0.0    -0.0    -0.1    -0.0     0.1    -0.0
    -0.1     0.0    -0.0    -0.1    -0.1     0.0     0.1    -0.0    -0.1    -0.0
     0.1    -0.0    -0.1     0.0     0.0    -0.0    -0.2    -0.0     0.1    -0.0
    -0.0    -0.1     0.0    -0.0    -0.1     0.0     0.0    -0.0    -0.1    -0.0
     0.0    -0.0    -0.1    -0.0     0.1    -0.1    -0.1     0.0     0.0     0.0
    -0.1    -0.0     0.0    -0.1    -0.1     0.1     0.1    -0.0    -0.1    -0.0
     0.1    -0.0    -0.1    -0.0     0.0    -0.1    -0.1    -0.0     0.0     0.0
    -0.1    -0.1     0.0    -0.0    -0.1     0.0     0.0    -0.0    -0.1    -0.0
     0.1    -0.1    -0.1     0.1     0.1    -0.1    -0.1    -0.0     0.1    -0.0
    -0.1    -0.0     0.0     0.0    -0.1    -0.1     0.1    -0.0    -0.1     0.0
     0.1    -0.0    -0.1     0.0     0.0    -0.1    -0.0     0.0     0.0    -0.0
    -0.1    -0.0     0.1    -0.0    -0.1     0.0     0.1    -0.1    -0.1    -0.0
     0.0    -0.0    -0.1    -0.0     0.0    -0.1    -0.1    -0.0     0.0    -0.0
    -0.1     0.0     0.1    -0.0    -0.1    -0.0    -0.0    -0.1    -0.1     0.0
     0.0    -0.0    -0.1    -0.0     0.1    -0.0    -0.2    -0.0     0.1    -0.1
    -0.1    -0.1     0.1    -0.0    -0.2    -0.0     0.1    -0.0    -0.1    -0.0
     0.0    -0.0    -0.1    -0.0     0.1    -0.0    -0.1    -0.0     0.0     0.0
    -0.1    -0.0     0.0    -0.0    -0.1    -0.1     0.0     0.0    -0.1    -0.0
     0.0    -0.0    -0.1    -0.0     0.0    -0.0    -0.1     0.0     0.1    -0.0
    -0.1    -0.1     0.0     0.0    -0.1     0.0     0.0    -0.1    -0.1    -0.0
     0.1     0.0    -0.1    -0.0     0.0    -0.0    -0.1    -0.0     0.1    -0.0
    -0.1    -0.0     0.0    -0.0    -0.1    -0.0     0.0     0.0    -0.1    -0.0
     0.1    -0.1    -0.1    -0.0     0.0     0.0    -0.1    -0.0     0.0    -0.1
    -0.1     0.0     0.1    -0.0    -0.1    -0.0     0.1    -0.0    -0.1    -0.0
     0.0    -0.0    -0.1    -0.0     0.1    -0.0    -0.1    -0.1     0.1    -0.0
    -0.1     0.0    -0.0    -0.0    -0.1    -0.1     0.0    -0.0    -0.1    -0.0
     0.1    -0.0    -0.1    -0.0     0.1    -0.0    -0.1    -0.0     0.0     0.0
    -0.1    -0.0     0.1    -0.0    -0.1    -0.0     0.1     0.0    -0.1    -0.0
     0.1    -0.0    -0.1    -0.0     0.1    -0.0    -0.1    -0.0     0.0    -0.1
    -0.1    -0.0     0.0     0.0    -0.1    -0.0     0.1    -0.0    -0.1    -0.1
     0.1    -0.0    -0.1     0.0     0.1    -0.0    -0.1    -0.0     0.0     0.0
    -0.1    -0.1     0.1    -0.0    -0.1     0.0    -0.0     0.0    -0.1    -0.1
     0.0     0.0    -0.1    -0.1     0.0     0.0    -0.1     0.0     0.0    -0.0
    -0.1    -0.1     0.1    -0.0    -0.1    -0.0     0.0    -0.0    -0.1    -0.1
     0.0     0.0    -0.1    -0.0     0.1    -0.0    -0.1    -0.1     0.0    -0.0
    -0.1    -0.0     0.1    -0.0    -0.1    -0.1     0.1     0.0    -0.1     0.0
    -0.0    -0.0    -0.1    -0.1     0.1    -0.1    -0.1     0.0     0.0    -0.0
    -0.1    -0.0     0.1     0.0    -0.1    -0.0     0.1    -0.1    -0.1    -0.0
     0.0     0.0    -0.1     0.0    -0.0    -0.0    -0.1    -0.1     0.1    -0.0
    -0.1    -0.0    -0.0    -0.1    -0.0    -0.0     0.0     0.0    -0.1    -0.1
     0.0     0.0    -0.1    -0.1    -0.0     0.0    -0.0    -0.1     0.1    -0.0
    -0.1    -0.0    -0.0     0.1    -0.1    -0.0     0.1    -0.1    -0.1    -0.0
     0.1    -0.1    -0.1     0.1     0.1    -0.2    -0.1     0.2     0.0    -0.2
    -0.1     0.1     0.0    -0.1     0.0     0.1    -0.1    -0.2    -0.0     0.1
    -0.1    -0.1     0.0     0.0    -0.1    -0.1     0.0     0.1    -0.0    -0.0
    -0.1     0.0     0.0    -0.1    -0.0    -0.0    -0.0     0.0    -0.1    -0.0
     0.0    -0.1    -0.1     0.0     0.1    -0.1    -0.2     0.0     0.2    -0.0
    -0.2    -0.0     0.2    -0.0    -0.3     0.0     0.2    -0.1    -0.2     0.0
     0.1    -0.0    -0.1     0.0    -0.0    -0.1    -0.0     0.1     0.0    -0.2
     0.0     0.1    -0.1    -0.1     0.0     0.1    -0.0    -0.2     0.0     0.1
    -0.1    -0.1    -0.1     0.1     0.1    -0.1    -0.1     0.0     0.1    -0.0
    -0.2    -0.0     0.1     0.0    -0.0    -0.1    -0.0     0.0    -0.0    -0.0
     0.0     0.0    -0.1    -0.0     0.1    -0.1    -0.2     0.0     0.2     0.0
    -0.2    -0.1     0.1    -0.0    -0.2     0.0     0.2    -0.1    -0.2     0.1
     0.1    -0.1    -0.1     0.1    -0.0    -0.1     0.0     0.1    -0.1    -0.2
     0.0     0.1    -0.1    -0.1     0.0     0.1    -0.0    -0.2    -0.0     0.1
     0.0    -0.1    -0.1     0.0     0.0    -0.1    -0.0     0.0    -0.0     0.0
    -0.1    -0.1    -0.0     0.0    -0.0    -0.1     0.0    -0.0    -0.0    -0.0
    -0.0    -0.0    -0.1     0.1     0.1    -0.1    -0.2    -0.0     0.3    -0.0
    -0.2     0.0     0.2    -0.0    -0.2     0.0     0.1    -0.1    -0.1     0.1
     0.0    -0.2    -0.0     0.1    -0.1    -0.1     0.1     0.1    -0.1    -0.1
     0.0     0.1    -0.0    -0.1    -0.0     0.1    -0.0    -0.1    -0.1     0.0
     0.1    -0.0    -0.1    -0.0     0.0    -0.0    -0.1    -0.1     0.1     0.1
    -0.1    -0.1     0.0    -0.0    -0.0     0.0     0.1    -0.0    -0.2    -0.0
     0.2    -0.0    -0.2    -0.1     0.2     0.1    -0.2    -0.1     0.2    -0.0
    -0.2     0.0     0.1    -0.0    -0.1     0.0     0.1    -0.2    -0.0     0.1
    -0.0    -0.1     0.0     0.1    -0.1    -0.2     0.0     0.1    -0.0    -0.2
    -0.0     0.1    -0.0    -0.1    -0.1     0.1     0.1    -0.1    -0.1     0.0
     0.0    -0.0    -0.1    -0.0     0.0     0.0    -0.1    -0.1    -0.0     0.1
     0.0    -0.1    -0.0    -0.0    -0.0    -0.1     0.1    -0.0    -0.2     0.0
     0.2    -0.0    -0.3    -0.1     0.2    -0.0    -0.2     0.0     0.1    -0.0
    -0.2    -0.0     0.1    -0.1    -0.1     0.1     0.0    -0.1    -0.1     0.1
    -0.0    -0.2     0.0     0.1    -0.1    -0.1     0.0     0.1    -0.0    -0.1
    -0.0     0.1     0.0    -0.1    -0.1     0.0     0.1    -0.1    -0.1    -0.0
    -0.0     0.1    -0.1    -0.0     0.0     0.0     0.0    -0.0    -0.0    -0.0
    -0.0    -0.1     0.0     0.0    -0.2    -0.0     0.1     0.1    -0.2    -0.2
     0.1     0.2    -0.1    -0.2     0.0     0.2    -0.1    -0.3    -0.0     0.2
     0.1    -0.2    -0.2     0.1    -0.0    -0.1    -0.0    -0.0     0.1    -0.1
    -0.0     0.0    -0.1     0.0    -0.0    -0.1    -0.1     0.0     0.0     0.0
    -0.1    -0.2     0.0     0.0    -0.0     0.0     0.0    -0.1    -0.1     0.1
     0.0     0.1    -0.1    -0.2     0.0     0.0     0.0    -0.0    -0.0    -0.1
    -0.1     0.1     0.0     0.1    -0.1    -0.3     0.1     0.1     0.0     0.1
    -0.2    -0.2     0.1     0.0     0.0     0.0    -0.1    -0.1    -0.0     0.0
    -0.0     0.0    -0.0    -0.1    -0.1    -0.1     0.1     0.1    -0.1    -0.0
    -0.1    -0.0     0.0    -0.0     0.0     0.0    -0.0    -0.1    -0.0     0.0
    -0.0     0.0    -0.1    -0.1    -0.0     0.0    -0.0    -0.0    -0.0    -0.1
    -0.0     0.0    -0.1     0.1    -0.0    -0.0     0.1    -0.3     0.0     0.2
    -0.0     0.1    -0.1    -0.2    -0.0     0.1     0.1     0.1    -0.2    -0.3
     0.2     0.0     0.0     0.1    -0.2    -0.1    -0.0    -0.0     0.1     0.0
    -0.1    -0.1    -0.1     0.0     0.1    -0.0    -0.0    -0.1    -0.1     0.1
     0.0    -0.0     0.1    -0.1    -0.1     0.1    -0.0     0.0     0.0    -0.0
    -0.1    -0.1     0.0     0.0    -0.0     0.0    -0.0    -0.1    -0.1    -0.0
     0.1    -0.1    -0.1    -0.0    -0.0    -0.0     0.1    -0.0    -0.2     0.1
    -0.0    -0.1     0.1    -0.1    -0.0     0.0    -0.1    -0.0    -0.0    -0.1
     0.1    -0.0    -0.1    -0.0    -0.1     0.0    -0.0    -0.1     0.0     0.0
    -0.1    -0.0     0.1     0.0    -0.1    -0.1     0.0     0.0     0.0     0.0
    -0.2    -0.0    -0.0     0.0     0.0    -0.1     0.0    -0.0    -0.0    -0.1
    -0.0     0.1    -0.0     0.1    -0.1    -0.1     0.0    -0.0     0.1    -0.0
    -0.1     0.0    -0.2     0.0     0.1    -0.0    -0.0    -0.1    -0.1     0.1
     0.1    -0.1     0.0    -0.1    -0.1     0.1     0.0    -0.0    -0.0    -0.1
    -0.1    -0.0     0.0    -0.0    -0.1    -0.0    -0.1    -0.1     0.0     0.0
    -0.0     0.0    -0.0    -0.1    -0.1    -0.0     0.0     0.0    -0.1    -0.0
    -0.0    -0.1     0.0     0.0     0.0    -0.0    -0.1    -0.0     0.0     0.0
     0.0    -0.2    -0.1     0.1    -0.0     0.0    -0.0    -0.2    -0.0     0.1
     0.0     0.1    -0.1    -0.2     0.1     0.1     0.0     0.0    -0.1    -0.1
    -0.1     0.0     0.1     0.0    -0.1    -0.1    -0.2     0.0     0.1    -0.1
     0.0    -0.0    -0.2    -0.0     0.1     0.0     0.0    -0.0    -0.1    -0.0
    -0.1     0.1     0.1    -0.0    -0.0    -0.3    -0.1     0.2     0.0     0.0
    -0.1    -0.2    -0.1     0.1     0.1     0.1    -0.0    -0.2    -0.1    -0.0
     0.1     0.1    -0.0    -0.1    -0.1    -0.0    -0.0     0.1     0.0    -0.2
    -0.1     0.0    -0.0    -0.0     0.1    -0.1    -0.1     0.0    -0.1     0.1
     0.0    -0.2    -0.0     0.0    -0.0     0.0    -0.1    -0.1    -0.0     0.0
    -0.0    -0.0     0.0    -0.1    -0.1    -0.0     0.0     0.0    -0.0    -0.1
    -0.1     0.1     0.0     0.0     0.0    -0.2     0.0     0.1    -0.0     0.0
    -0.1    -0.1     0.0     0.0     0.0     0.0    -0.0    -0.2    -0.1     0.0
     0.1     0.0    -0.0    -0.2    -0.1     0.1     0.0     0.1    -0.0    -0.2
     0.0     0.0     0.0     0.1    -0.1    -0.2     0.0    -0.0     0.0     0.1
    -0.1    -0.2    -0.0    -0.0    -0.0     0.1    -0.0    -0.0    -0.1    -0.0
     0.1     0.0     0.0    -0.2    -0.2     0.1     0.1    -0.0    -0.0    -0.2
    -0.1     0.0    -0.0     0.1    -0.0    -0.2    -0.0     0.0    -0.0     0.1
     0.0    -0.1    -0.0    -0.2    -0.0     0.1    -0.1     0.0    -0.0    -0.1
    -0.0     0.0     0.0     0.1    -0.1    -0.1    -0.0    -0.0     0.1    -0.0
    -0.1     0.1    -0.1    -0.0    -0.0    -0.1     0.1     0.0    -0.1    -0.1
    -0.0     0.1     0.1    -0.1    -0.0    -0.1    -0.1     0.1    -0.0    -0.1
     0.1    -0.1    -0.1    -0.0     0.1     0.1     0.0    -0.2    -0.1     0.2
    -0.0     0.0    -0.0    -0.1    -0.1    -0.0     0.1     0.1    -0.0    -0.2
    -0.1     0.1     0.0     0.1    -0.0    -0.2    -0.1     0.0     0.1     0.0
     0.0    -0.2    -0.2     0.1     0.0     0.0    -0.0    -0.1    -0.0    -0.1
     0.1     0.1    -0.0    -0.2    -0.1     0.1    -0.0    -0.0     0.0    -0.1
     0.0    -0.1    -0.1     0.1    -0.0    -0.0     0.0    -0.2     0.0    -0.0
    -0.1     0.1    -0.0    -0.1     0.0    -0.1    -0.1    -0.0     0.1    -0.0
    -0.0    -0.1    -0.1     0.1    -0.0    -0.1     0.1    -0.0    -0.1    -0.1
    -0.1     0.1     0.1    -0.0    -0.1    -0.2    -0.1     0.1     0.1    -0.0
    -0.1    -0.2    -0.1     0.2     0.0     0.0    -0.0    -0.1    -0.1    -0.1
     0.1     0.2    -0.0    -0.2    -0.2     0.0     0.0     0.0    -0.0    -0.0
    -0.1    -0.1     0.0    -0.1     0.1    -0.0    -0.1    -0.0    -0.2     0.0
     0.1     0.0     0.0    -0.3    -0.2     0.2     0.1    -0.0    -0.0    -0.2
    -0.1     0.0     0.0     0.1     0.0    -0.1    -0.2     0.0     0.0     0.0
     0.1    -0.2    -0.0    -0.0    -0.1     0.1    -0.0    -0.0     0.0    -0.1
    -0.2     0.0     0.1    -0.0     0.0    -0.1    -0.3     0.1     0.1     0.0
     0.0    -0.2    -0.1     0.0    -0.0     0.1    -0.0    -0.1    -0.1    -0.1
     0.1     0.1    -0.1    -0.1    -0.0    -0.0     0.1    -0.0    -0.2    -0.0
     0.1    -0.0     0.0    -0.1    -0.1     0.0     0.1    -0.0    -0.1    -0.0
    -0.0    -0.1     0.0    -0.0    -0.0    -0.0    -0.0    -0.0    -0.0    -0.0
     0.0    -0.0    -0.1    -0.0     0.0    -0.0    -0.0    -0.0    -0.0     0.1
    -0.1    -0.1     0.1    -0.1     0.0     0.0    -0.1     0.0    -0.1    -0.1
     0.1    -0.1    -0.0     0.0    -0.2    -0.0     0.1    -0.0    -0.0    -0.0
    -0.1    -0.1    -0.1     0.1     0.0    -0.0    -0.0    -0.1    -0.0    -0.1
     0.1     0.1    -0.1    -0.1    -0.1     0.0     0.1    -0.0     0.0    -0.0
    -0.0    -0.1    -0.1     0.1     0.1    -0.0    -0.1    -0.2    -0.1     0.1
     0.1     0.1     0.0    -0.2    -0.3     0.1     0.1     0.1     0.0    -0.2
    -0.2    -0.1     0.1     0.2     0.0    -0.1    -0.2    -0.1     0.1     0.0
     0.1     0.1    -0.2    -0.1     0.0     0.0     0.2    -0.1    -0.3     0.0
     0.1    -0.0     0.1    -0.1    -0.1     0.0     0.0     0.0     0.1    -0.1
    -0.2     0.1    -0.0     0.0     0.0    -0.1    -0.0    -0.0    -0.0     0.1
    -0.1    -0.1     0.0    -0.1     0.0     0.1    -0.1    -0.0    -0.0    -0.1
     0.0     0.0    -0.1    -0.0    -0.1    -0.0     0.0    -0.0     0.0     0.0
    -0.1    -0.0    -0.0    -0.0     0.1    -0.1    -0.1     0.1    -0.0    -0.0
     0.0    -0.1    -0.0    -0.1    -0.0     0.1    -0.1     0.0    -0.1    -0.1
