Origin Time       2016/04/16 01:25:00
Lat.              32.753
Long.             130.762
Depth. (km)       12
Mag.              7.3
Station Code      SZO019
Station Lat.      34.7699
Station Long.     137.9981
Station Height(m) 37
Record Time       2016/04/16 01:28:46
Sampling Freq(Hz) 100Hz
Duration Time(s)  60
Dir.              E-W
Scale Factor      7845(gal)/8223790
Max. Acc. (gal)   1.730
Last Correction   2016/04/16 01:28:47
Memo.             
[...]
    6985     6997     7003     7015     7030     7047     7053     7060 
    7079     7096     7105     7115     7134     7150     7159     7169 
    7187     7198     7203     7222     7240     7250     7261     7275 
    7283     7292     7310     7318     7322     7337     7352     7361 
    7369     7378     7387     7396     7410     7420     7425     7430 
    7443     7454     7464     7473     7480     7485     7495     7504 
    7512     7520     7527     7537     7547     7553     7560     7570 
    7581     7584     7584     7595     7609     7611     7609     7619 
    7631     7636     7639     7649     7657     7663     7665     7669 
    7677     7684     7685     7689     7697     7701     7705     7713 
    7717     7716     7717     7723     7727     7726     7728     7734 
    7736     7731     7730     7735     7734     7731     7730     7730 
    7734     7734     7727     7727     7726     7719     7716     7717 
    7712     7704     7705     7711     7704     7693     7690     7688 
    7682     7676     7669     7665     7663     7662     7655     7641 
    7634     7635     7634     7627     7619     7614     7609     7604 
    7601     7593     7581     7580     7580     7566     7555     7555 
    7553     7541     7528     7524     7520     7510     7503     7499 
    7488     7476     7465     7456     7444     7435     7429     7422 
    7410     7395     7387     7378     7371     7360     7349     7345 
    7334     7319     7310     7304     7294     7284     7277     7272 
    7264     7253     7245     7238     7227     7223     7221     7213 
    7203     7192     7184     7182     7176     7169     7165     7160 
    7149     7140     7137     7126     7113     7110     7106     7096 
    7084     7079     7072     7063     7053     7042     7034     7028 
    7020     7007     6997     6988     6978     6968     6961     6951 
    6940     6934     6928     6918     6909     6903     6902     6894 
    6881     6874     6870     6867     6856     6848     6848     6848 
    6840     6836     6835     6829     6822     6817     6815     6814 
    6809     6810     6814     6809     6806     6808     6804     6802 
    6808     6813     6812     6808     6809     6813     6817     6821 
    6824     6826     6825     6828     6835     6839     6841     6844 
    6848     6855     6859     6864     6868     6871     6876     6883 
    6885     6886     6895     6906     6909     6912     6918     6921 
    6924     6932     6941     6945     6951     6959     6966     6970 
    6972     6980     6987     6988     6988     6997     7001     6999 
    7006     7017     7011     7006     7013     7015     7011     7017 
    7026     7026     7021     7018     7018     7013     7009     7010 
    7011     7009     7009     7003     6997     6995     6993     6985 
    6982     6978     6972     6972     6972     6966     6959     6955 
    6952     6951     6951     6947     6945     6949     6945     6937 
    6937     6940     6939     6936     6934     6933     6933     6939 
    6939     6934     6939     6941     6939     6939     6943     6947 
    6947     6949     6952     6952     6955     6963     6966     6966 
    6968     6971     6975     6980     6984     6984     6980     6982 
    6987     6987     6997     7007     7011     7014     7015     7014 
    7009     7006     7009     7013     7017     7026     7028     7025 
    7038     7051     7044     7044     7056     7061     7061     7065 
    7076     7086     7089     7096     7105     7107     7113     7121 
    7125     7130     7137     7149     7160     7165     7169     7177 
    7187     7191     7194     7198     7203     7209     7217     7225 
    7229     7229     7231     7236     7236     7236     7240     7242 
    7244     7242     7241     7241     7238     7238     7241     7238 
    7236     7229     7219     7219     7219     7211     7207     7203 
    7195     7190     7187     7180     7177     7173     7167     7165 
    7160     7148     7144     7146     7140     7130     7130     7132 
    7127     7126     7125     7121     7118     7121     7123     7119 
    7113     7117     7126     7126     7126     7129     7132     7132 
    7132     7137     7137     7138     7140     7142     7149     7156 
    7160     7164     7167     7169     7173     7180     7182     7183 
    7194     7200     7195     7198     7210     7213     7210     7217 
    7222     7221     7225     7236     7241     7238     7242     7250 
    7254     7254     7257     7263     7263     7260     7264     7273 
    7275     7271     7277     7290     7295     7295     7296     7299 
    7302     7307     7312     7317     7322     7325     7330     7335 
    7338     7344     7352     7354     7356     7364     7371     7372 
    7369     7373     7380     7381     7385     7385     7383     7383 
    7383     7385     7391     7384     7377     7378     7378     7372 
    7364     7360     7354     7344     7335     7331     7323     7310 
    7298     7291     7283     7269     7252     7242     7234     7219 
    7203     7192     7173     7157     7146     7130     7113     7099 
    7083     7065     7047     7028     7013     6998     6980     6963 
    6949     6937     6921     6905     6893     6879     6859     6839 
    6826     6818     6805     6789     6777     6771     6762     6748 
    6735     6729     6724     6710     6698     6690     6687     6685 
    6675     6669     6663     6658     6656     6655     6652     6650 
    6648     6652     6654     6658     6666     6666     6666     6673 
    6677     6679     6683     6691     6701     6705     6713     6727 
    6732     6739     6748     6759     6771     6779     6790     6806 
    6815     6824     6836     6848     6860     6871     6881     6897 
    6914     6924     6937     6957     6972     6983     6997     7011 
    7026     7044     7059     7075     7092     7106     7121     7142 
    7156     7165     7186     7206     7218     7231     7245     7253 
    7269     7291     7304     7314     7331     7348     7358     7369 
    7384     7399     7411     7426     7439     7454     7466     7477 
    7487     7497     7514     7528     7535     7545     7560     7572 
    7580     7589     7604     7619     7632     7639     7650     7665 
    7678     7688     7693     7704     7713     7720     7732     7746 
    7754     7765     7777     7785     7794     7805     7811     7816 
    7821     7830     7836     7840     7850     7859     7862     7865 
    7875     7881     7879     7882     7890     7893     7890     7892 
    7894     7896     7896     7890     7890     7893     7885     7881 
    7888     7884     7875     7871     7867     7863     7855     7846 
    7844     7836     7823     7819     7813     7801     7789     7777 
    7771     7765     7749     7734     7726     7715     7700     7688 
    7674     7657     7646     7635     7614     7600     7589     7565 
    7543     7533     7522     7500     7484     7474     7454     7431 
    7416     7399     7381     7365     7345     7329     7312     7292 
    7275     7258     7244     7227     7207     7195     7187     7167 
    7145     7129     7114     7094     7076     7063     7049     7034 
    7018     7005     6993     6979     6967     6952     6937     6924 
    6914     6901     6889     6878     6866     6858     6848     6836 
    6824     6821     6815     6799     6790     6789     6782     6772 
    6762     6758     6756     6744     6731     6732     6733     6724 
    6716     6711     6710     6709     6705     6700     6698     6698 
    6694     6687     6683     6686     6691     6683     6673     6677 
    6681     6677     6669     6669     6673     6666     6655     6655 
    6658     6656     6654     6648     6644     6642     6637     6635 
    6635     6629     6627     6631     6631     6631     6627     6621 
    6624     6627     6623     6617     6619     6624     6621     6619 
    6621     6623     6621     6620     6624     6631     6635     6639 
    6647     6651     6651     6655     6658     6655     6656     6662 
    6671     6679     6682     6690     6708     6718     6718     6724 
    6741     6747     6744     6758     6775     6782     6789     6805 
    6818     6824     6837     6853     6860     6868     6886     6906 
    6918     6932     6948     6963     6975     6987     6999     7009 
    7021     7042     7063     7076     7088     7102     7119     7136 
    7145     7160     7180     7190     7198     7217     7236     7246 
    7256     7271     7287     7302     7312     7321     7331     7345 
    7353     7358     7366     7378     7385     7385     7396     7410 
    7411     7406     7410     7415     7415     7408     7408     7411 
    7406     7400     7400     7402     7396     7388     7383     7377 
    7365     7356     7350     7339     7329     7323     7317     7307 
    7298     7284     7272     7260     7248     7238     7226     7209 
    7196     7187     7175     7165     7155     7142     7129     7115 
    7103     7092     7082     7072     7056     7040     7029     7020 
    7005     6993     6984     6974     6964     6955     6944     6934 
    6925     6916     6906     6894     6886     6875     6863     6855 
    6844     6835     6826     6817     6812     6805     6793     6782 
    6775     6766     6758     6747     6739     6737     6731     6717 
    6710     6705     6697     6686     6681     6678     6666     6651 
    6647     6646     6633     6620     6610     6604     6596     6589 
    6577     6562     6551     6543     6535     6523     6512     6501 
    6490     6481     6470     6462     6453     6438     6423     6412 
    6407     6397     6385     6378     6369     6356     6347     6339 
    6330     6322     6312     6303     6299     6292     6281     6270 
    6264     6257     6249     6239     6237     6232     6223     6219 
    6218     6205     6200     6205     6200     6193     6193     6195 
    6193     6189     6188     6186     6188     6189     6191     6191 
    6193     6195     6196     6200     6205     6207     6210     6216 
    6223     6227     6230     6235     6241     6249     6257     6261 
    6268     6276     6281     6289     6297     6300     6308     6320 
    6326     6327     6342     6355     6358     6359     6370     6381 
    6384     6389     6399     6403     6409     6417     6420     6424 
    6430     6435     6442     6442     6442     6448     6454     6457 
    6460     6465     6469     6471     6480     6486     6484     6482 
    6488     6493     6494     6500     6512     6519     6519     6524 
    6534     6539     6543     6552     6563     6573     6581     6588 
    6594     6604     6617     6627     6640     6650     6655     6670 
    6682     6686     6700     6713     6721     6733     6744     6754 
    6767     6779     6789     6801     6813     6821     6828     6841 
    6858     6866     6871     6881     6891     6903     6913     6916 
    6924     6937     6947     6952     6956     6963     6974     6983 
    6990     6999     7009     7014     7015     7021     7029     7033 
    7033     7040     7048     7051     7053     7060     7065     7067 
    7069     7074     7074     7076     7082     7082     7086     7091 
    7087     7083     7089     7094     7091     7091     7094     7094 
    7092     7094     7098     7096     7094     7094     7094     7102 
    7102     7098     7098     7096     7091     7087     7086     7083 
    7084     7088     7092     7092     7086     7082     7078     7067 
    7059     7056     7056     7059     7063     7061     7059     7056 
    7052     7047     7045     7041     7036     7033     7034     7034 
    7029     7025     7023     7020     7013     7011     7010     7006 
    7003     7002     6998     6994     6994     6990     6987     6984 
    6979     6975     6974     6970     6966     6964     6963     6957 
    6952     6948     6949     6949     6941     6936     6936     6932 
    6928     6930     6928     6921     6922     6925     6919     6916 
    6917     6919     6921     6918     6914     6916     6921     6919 
    6916     6921     6928     6926     6926     6932     6934     6933 
    6936     6940     6945     6955     6960     6964     6967     6974 
    6985     6990     6990     6997     7005     7013     7018     7028 
    7038     7048     7056     7065     7075     7083     7087     7094 
    7105     7110     7121     7136     7144     7152     7165     7180 
    7191     7198     7203     7213     7225     7236     7250     7263 
    7275     7284     7294     7302     7307     7323     7339     7348 
    7357     7373     7389     7402     7416     7430     7439     7453 
    7473     7488     7504     7522     7531     7547     7570     7586 
    7601     7622     7638     7652     7673     7695     7711     7723 
    7747     7777     7794     7808     7834     7858     7874     7893 
    7920     7942     7962     7985     8005     8024     8052     8078 
    8095     8121     8148     8166     8185     8210     8232     8248 
    8276     8302     8318     8341     8367     8388     8408     8431 
    8453     8473     8494     8513     8533     8556     8579     8596 
    8610     8631     8653     8672     8691     8706     8721     8743 
    8757     8766     8784     8797     8810     8826     8841     8849 
    8858     8872     8881     8885     8892     8900     8905     8907 
    8912     8918     8919     8915     8916     8920     8919     8916 
    8916     8914     8904     8899     8895     8887     8878     8866 
    8853     8846     8838     8820     8803     8792     8779     8761 
    8745     8729     8708     8687     8668     8648     8627     8607 
    8588     8569     8546     8515     8487     8461     8434     8406 
    8382     8357     8337     8313     8286     8266     8240     8209 
    8182     8156     8129     8105     8081     8054     8025     8001 
    7977     7952     7929     7901     7871     7844     7824     7803 
    7778     7753     7730     7704     7680     7655     7632     7608 
    7585     7564     7543     7519     7495     7474     7453     7433 
    7411     7385     7361     7345     7325     7302     7287     7267 
    7244     7223     7203     7187     7172     7153     7132     7118 
    7103     7086     7069     7053     7037     7022     7006     6990 
    6982     6970     6952     6944     6936     6918     6903     6894 
    6885     6871     6859     6856     6852     6843     6832     6825 
    6817     6809     6797     6790     6791     6794     6789     6786 
    6790     6786     6782     6785     6787     6786     6787     6786 
    6790     6799     6802     6806     6817     6825     6829     6835 
    6840     6848     6862     6868     6875     6889     6901     6910 
    6922     6932     6940     6952     6964     6975     6990     7007 
    7021     7032     7045     7056     7068     7082     7096     7107 
    7121     7136     7146     7160     7179     7190     7198     7215 
    7225     7230     7244     7260     7267     7273     7287     7299 
    7307     7315     7323     7334     7345     7350     7356     7365 
    7373     7380     7388     7392     7393     7399     7404     7408 
    7414     7416     7416     7418     7416     7420     7427     7425 
    7423     7427     7427     7425     7423     7419     7415     7416 
    7414     7408     7404     7402     7399     7395     7391     7388 
    7381     7372     7362     7353     7349     7344     7334     7325 
    7318     7310     7295     7284     7279     7264     7252     7242 
    7230     7217     7206     7195     7180     7163     7149     7137 
    7121     7110     7102     7086     7068     7052     7037     7023 
    7013     6998     6982     6970     6955     6933     6922     6912 
    6895     6878     6867     6858     6841     6818     6808     6805 
    6793     6772     6759     6750     6735     6718     6706     6696 
    6683     6666     6650     6640     6631     6620     6609     6597 
    6583     6569     6554     6542     6535     6529     6517     6507 
    6504     6492     6474     6467     6459     6444     6435     6430 
    6423     6417     6412     6404     6400     6396     6392     6388 
    6378     6370     6372     6372     6367     6361     6361     6363 
    6365     6361     6361     6358     6358     6361     6361     6361 
    6363     6370     6377     6378     6376     6380     6388     6386 
    6384     6389     6399     6403     6407     6409     6415     6421 
    6426     6427     6431     6438     6442     6447     6458     6467 
    6471     6473     6477     6482     6488     6496     6500     6504 
    6513     6517     6519     6523     6531     6538     6540     6547 
    6554     6554     6556     6564     6567     6567     6571     6575 
    6575     6578     6582     6583     6585     6588     6590     6588 
    6590     6593     6585     6581     6588     6593     6589     6583 
    6586     6583     6577     6574     6569     6563     6562     6558 
    6547     6543     6542     6538     6536     6536     6528     6517 
    6512     6512     6507     6498     6490     6486     6481     6474 
    6465     6458     6455     6447     6439     6436     6427     6420 
    6419     6416     6411     6405     6396     6388     6385     6382 
    6377     6369     6369     6372     6367     6359     6356     6358 
    6356     6351     6349     6349     6346     6345     6347     6346 
    6339     6338     6340     6345     6347     6343     6342     6346 
    6349     6350     6355     6355     6355     6363     6372     6374 
    6378     6385     6389     6392     6397     6407     6413     6421 
    6430     6436     6443     6455     6463     6473     6486     6494 
    6500     6511     6527     6539     6547     6562     6581     6593 
    6604     6620     6635     6646     6658     6669     6682     6698 
    6711     6724     6741     6756     6767     6781     6798     6813 
    6828     6841     6855     6867     6885     6903     6914     6928 
    6944     6957     6970     6987     7003     7018     7036     7055 
    7072     7086     7096     7113     7130     7142     7156     7173 
    7188     7203     7217     7231     7249     7264     7279     7295 
    7307     7322     7339     7350     7360     7376     7392     7399 
    7404     7420     7439     7447     7458     7477     7488     7493 
    7504     7518     7528     7538     7547     7558     7570     7580 
    7585     7591     7596     7607     7614     7619     7630     7638 
    7639     7645     7652     7657     7673     7684     7678     7681 
    7688     7690     7697     7705     7708     7711     7717     7723 
    7723     7727     7735     7739     7739     7742     7751     7758 
    7761     7766     7770     7774     7778     7781     7786     7792 
    7798     7803     7801     7804     7811     7819     7824     7825 
    7827     7835     7835     7832     7840     7850     7851     7847 
    7847     7852     7857     7859     7863     7865     7862     7865 
    7870     7867     7865     7870     7871     7869     7873     7875 
    7871     7870     7873     7871     7873     7873     7865     7865 
    7869     7865     7862     7865     7860     7855     7855     7851 
